{
    "links": {
        "self": "http://www.neowsapp.com/rest/v1/neo/3092408?api_key=iIulBulltgU6a56xZRHN4H3l9WmuAYTsLGpBGhQ2"
    },
    "id": "3092408",
    "neo_reference_id": "3092408",
    "name": "(2001 UT16)",
    "designation": "2001 UT16",
    "nasa_jpl_url": "http://ssd.jpl.nasa.gov/sbdb.cgi?sstr=3092408",
    "absolute_magnitude_h": 25.5,
    "estimated_diameter": {
        "kilometers": {
            "estimated_diameter_min": 0.0211132445,
            "estimated_diameter_max": 0.0472106499
        },
        "meters": {
            "estimated_diameter_min": 21.113244479,
            "estimated_diameter_max": 47.2106498806
        },
        "miles": {
            "estimated_diameter_min": 0.0131191578,
            "estimated_diameter_max": 0.0293353287
        },
        "feet": {
            "estimated_diameter_min": 69.2691770164,
            "estimated_diameter_max": 154.8905885541
        }
    },
    "is_potentially_hazardous_asteroid": false,
    "close_approach_data": [
        {
            "close_approach_date": "2001-10-26",
            "close_approach_date_full": "2001-Oct-26 09:53",
            "epoch_date_close_approach": 1004089980000,
            "relative_velocity": {
                "kilometers_per_second": "7.7758561277",
                "kilometers_per_hour": "27993.0820595592",
                "miles_per_hour": "17393.8125719522"
            },
            "miss_distance": {
                "astronomical": "0.0250032346",
                "lunar": "9.7262582594",
                "kilometers": "3740430.639270302",
                "miles": "2324195.8248500876"
            },
            "orbiting_body": "Earth"
        }
    ],
    "orbital_data": {
        "orbit_id": "7",
        "orbit_determination_date": "2017-04-06 09:15:56",
        "first_observation_date": "2001-10-24",
        "last_observation_date": "2001-10-25",
        "data_arc_in_days": 1,
        "observations_used": 9,
        "orbit_uncertainty": "9",
        "minimum_orbit_intersection": ".0248799",
        "jupiter_tisserand_invariant": "3.491",
        "epoch_osculation": "2452207.5",
        "eccentricity": ".5307417637335178",
        "semi_major_axis": "2.162751814081085",
        "inclination": "7.02044418710282",
        "ascending_node_longitude": "210.9834203167811",
        "orbital_period": "1161.738693171211",
        "perihelion_distance": "1.014889101757825",
        "perihelion_argument": "190.3641233900699",
        "aphelion_distance": "3.310614526404346",
        "perihelion_time": "2452215.779486417067",
        "mean_anomaly": "357.4343498002912",
        "mean_motion": ".3098803561559131",
        "equinox": "J2000",
        "orbit_class": {
            "orbit_class_type": "APO",
            "orbit_class_description": "Near-Earth asteroid orbits which cross the Earth’s orbit similar to that of 1862 Apollo",
            "orbit_class_range": "a (semi-major axis) > 1.0 AU; q (perihelion) < 1.017 AU"
        }
    },
    "is_sentry_object": false
}